IRIDIUM 126             
1 42809U 17039G   25240.74878329  .00000374  00000+0  12637-3 0  9999
2 42809  86.3959 115.9208 0001927  88.5497 271.5920 14.34218478428036
IRIDIUM 124             
1 42810U 17039H   25240.89223965  .00000149  00000+0  38294-4 0  9995
2 42810  86.4455  52.5452 0002349  92.0733 268.0737 14.43281474432958
IRIDIUM 128             
1 42811U 17039J   25240.18137444  .00000055  00000+0  12730-4 0  9997
2 42811  86.4024 147.6524 0002521  86.4232 273.7252 14.34218166427980
IRIDIUM 121             
1 42812U 17039K   25240.76781098  .00000081  00000+0  21807-4 0  9996
2 42812  86.3959 115.9390 0002246  84.6922 275.4530 14.34217659427913
IRIDIUM 133             
1 42955U 17061A   25240.84100321  .00000021  00000+0  37124-6 0  9997
2 42955  86.4026 147.4873 0002065  84.9147 275.2284 14.34217897412871
IRIDIUM 100             
1 42956U 17061B   25240.83466022  .00000238  00000+0  77879-4 0  9999
2 42956  86.4023 147.4158 0002163  88.5986 271.5458 14.34218902412875
IRIDIUM 122             
1 42957U 17061C   25240.80294624  .00000169  00000+0  53403-4 0  9994
2 42957  86.4022 147.4283 0002113  85.8590 274.2848 14.34219146412874
IRIDIUM 129             
1 42958U 17061D   25240.82831732  .00000075  00000+0  19759-4 0  9996
2 42958  86.4024 147.4815 0001888  74.3826 285.7579 14.34218227412890
